NORAD_CAT_ID,OBJECT_NAME,OBJECT_TYPE,EPOCH,MEAN_MOTION,ECCENTRICITY,INCLINATION,RA_OF_ASC_NODE,ARG_OF_PERICENTER,MEAN_ANOMALY,BSTAR,MEAN_MOTION_DOT,MEAN_MOTION_DDOT,TLE_LINE0,TLE_LINE1,TLE_LINE2,SEMIMAJOR_AXIS,PERIOD,APOGEE,PERIGEE,DECAYED
49421.0,STARLINK-3112,PAYLOAD,2023-03-22 04:45:30,15.08847313,0.0001113,53.2162,53.1075,98.3918,261.72,0.00055946,8.629e-05,0.0,0 STARLINK-3112,1 49421U 21104P   23081.19827236  .00008629  00000-0  55946-3 0  9997,2 49421  53.2162  53.1075 0001113  98.3918 261.7200 15.08847313 76131,6917.858,95.437,540.493,538.953,0.0
49421.0,STARLINK-3112,PAYLOAD,2023-03-22 07:56:16,15.08850614,0.0001125,53.2162,52.5124,98.4878,261.6241,0.00072096,0.00011208,0.0,0 STARLINK-3112,1 49421U 21104P   23081.33075171  .00011208  00000-0  72096-3 0  9998,2 49421  53.2162  52.5124 0001125  98.4878 261.6241 15.08850614 75072,6917.848,95.437,540.491,538.935,0.0
49421.0,STARLINK-3112,PAYLOAD,2023-03-23 04:36:17,15.08858178,9.91e-05,53.2172,48.649,84.1712,275.9393,0.0012989,0.00020455,0.0,0 STARLINK-3112,1 49421U 21104P   23082.19187185  .00020455  00000-0  12989-2 0  9990,2 49421  53.2172  48.6490 0000991  84.1712 275.9393 15.08858178 76287,6917.825,95.436,540.375,539.004,0.0
49421.0,STARLINK-3112,PAYLOAD,2023-03-23 07:47:03,15.08863848,9.97e-05,53.2173,48.0542,82.9885,277.122,0.0013029,0.00020522,0.0,0 STARLINK-3112,1 49421U 21104P   23082.32434989  .00020522  00000-0  13029-2 0  9993,2 49421  53.2173  48.0542 0000997  82.9885 277.1220 15.08863848 75229,6917.807,95.436,540.362,538.983,0.0
49421.0,STARLINK-3112,PAYLOAD,2023-03-24 02:51:41,15.08870131,0.0001002,53.2176,44.486,101.7692,258.3413,0.0023848,0.00037902,0.0,0 STARLINK-3112,1 49421U 21104P   23083.11922989  .00037902  00000-0  23848-2 0  9993,2 49421  53.2176  44.4860 0001002 101.7692 258.3413 15.08870131 76420,6917.788,95.436,540.346,538.96,0.0
49421.0,STARLINK-3112,PAYLOAD,2023-03-24 07:37:50,15.08967671,8.47e-05,53.2175,43.5933,74.4799,285.6287,0.0085904,0.00139638,0.0,0 STARLINK-3112,1 49421U 21104P   23083.31794063  .00139638  00000-0  85904-2 0  9995,2 49421  53.2175  43.5933 0000847  74.4799 285.6287 15.08967671 76451,6917.49,95.429,539.941,538.769,0.0
49421.0,STARLINK-3112,PAYLOAD,2023-03-25 04:17:51,15.08844626,0.0001193,53.2178,39.7279,92.7701,267.3428,0.0010527,0.00016508,0.0,0 STARLINK-3112,1 49421U 21104P   23084.17906629  .00016508  00000-0  10527-2 0  9992,2 49421  53.2178  39.7279 0001193  92.7701 267.3428 15.08844626 76587,6917.866,95.437,540.557,538.906,0.0
49421.0,STARLINK-3112,PAYLOAD,2023-03-25 07:28:37,15.08846832,0.000115,53.2175,39.1335,90.1746,269.9378,0.00089588,0.00014001,0.0,0 STARLINK-3112,1 49421U 21104P   23084.31154574  .00014001  00000-0  89588-3 0  9992,2 49421  53.2175  39.1335 0001150  90.1746 269.9378 15.08846832 75521,6917.86,95.437,540.52,538.929,0.0
49421.0,STARLINK-3112,PAYLOAD,2023-03-26 04:08:41,15.08753732,0.0001425,53.2181,35.2666,90.9992,269.1164,-0.00085211,-0.00013791,0.0,0 STARLINK-3112,1 49421U 21104P   23085.17269990 -.00013791  00000-0 -85211-3 0  9992,2 49421  53.2181  35.2666 0001425  90.9992 269.1164 15.08753732 76733,6918.144,95.443,540.995,539.023,0.0
49421.0,STARLINK-3112,PAYLOAD,2023-03-26 05:44:03,15.08805192,9.84e-05,53.2184,34.9679,105.6846,254.4255,0.0011452,0.00017967,0.0,0 STARLINK-3112,1 49421U 21104P   23085.23892775  .00017967  00000-0  11452-2 0  9994,2 49421  53.2184  34.9679 0000984 105.6846 254.4255 15.08805192 76744,6917.987,95.44,540.533,539.171,0.0
49421.0,STARLINK-3112,PAYLOAD,2023-03-27 03:59:27,15.08865592,0.0001444,53.2179,30.8077,85.891,274.2247,0.0016429,0.00025974,0.0,0 STARLINK-3112,1 49421U 21104P   23086.16628783  .00025974  00000-0  16429-2 0  9999,2 49421  53.2179  30.8077 0001444  85.8910 274.2247 15.08865592 76884,6917.802,95.436,540.666,538.668,0.0
49421.0,STARLINK-3112,PAYLOAD,2023-03-27 05:34:50,15.08871959,0.0001429,53.2181,30.5103,89.345,270.7706,0.0017596,0.00027852,0.0,0 STARLINK-3112,1 49421U 21104P   23086.23252543  .00027852  00000-0  17596-2 0  9997,2 49421  53.2181  30.5103 0001429  89.3450 270.7706 15.08871959 75812,6917.783,95.436,540.636,538.659,0.0
49421.0,STARLINK-3112,PAYLOAD,2023-03-27 19:53:18,15.08860529,0.0001419,53.2183,27.835,102.5654,257.5497,0.00025905,3.84e-05,0.0,0 STARLINK-3112,1 49421U 21104P   23086.82868074  .00003840  00000-0  25905-3 0  9999,2 49421  53.2183  27.8350 0001419 102.5654 257.5497 15.08860529 76980,6917.818,95.436,540.664,538.701,0.0
49421.0,STARLINK-3112,PAYLOAD,2023-03-28 05:25:36,15.08869869,0.0001298,53.2185,26.0495,96.2951,263.8189,0.0003452,5.215e-05,0.0,0 STARLINK-3112,1 49421U 21104P   23087.22611251  .00005215  00000-0  34520-3 0  9998,2 49421  53.2185  26.0495 0001298  96.2951 263.8189 15.08869869 75968,6917.789,95.436,540.552,538.756,0.0
49421.0,STARLINK-3112,PAYLOAD,2023-03-29 05:16:23,15.08857922,0.0001184,53.2174,21.5891,82.5077,277.605,0.00078126,0.00012174,0.0,0 STARLINK-3112,1 49421U 21104P   23088.21971368  .00012174  00000-0  78126-3 0  9998,2 49421  53.2174  21.5891 0001184  82.5077 277.6050 15.08857922 77191,6917.826,95.436,540.51,538.872,0.0
49421.0,STARLINK-3112,PAYLOAD,2023-03-29 17:59:28,15.08827962,4.55e-05,53.2184,19.2101,117.8658,242.238,0.00037575,5.696e-05,0.0,0 STARLINK-3112,1 49421U 21104P   23088.74963761  .00005696  00000-0  37575-3 0  9998,2 49421  53.2184  19.2101 0000455 117.8658 242.2380 15.08827962 77271,6917.917,95.438,540.097,539.467,0.0
49421.0,STARLINK-3112,PAYLOAD,2023-03-30 05:07:10,15.08852711,9.96e-05,53.2175,17.1288,96.026,264.0846,0.00103,0.00016148,0.0,0 STARLINK-3112,1 49421U 21104P   23089.21331884  .00016148  00000-0  10300-2 0  9996,2 49421  53.2175  17.1288 0000996  96.0260 264.0846 15.08852711 77348,6917.842,95.437,540.396,539.018,0.0
49421.0,STARLINK-3112,PAYLOAD,2023-03-31 04:57:57,15.08872995,0.0001017,53.2173,12.6688,112.3143,247.7957,0.001421,0.0002242,0.0,0 STARLINK-3112,1 49421U 21104P   23090.20691471  .00022420  00000-0  14210-2 0  9992,2 49421  53.2173  12.6688 0001017 112.3143 247.7957 15.08872995 77490,6917.78,95.435,540.348,538.941,0.0
49421.0,STARLINK-3112,PAYLOAD,2023-03-31 19:16:26,15.08841093,8.46e-05,53.2174,9.9922,101.904,258.2047,0.0012116,0.00019048,0.0,0 STARLINK-3112,1 49421U 21104P   23090.80308123  .00019048  00000-0  12116-2 0  9992,2 49421  53.2174   9.9922 0000846 101.9040 258.2047 15.08841093 77582,6917.877,95.437,540.327,539.157,0.0
49421.0,STARLINK-3112,PAYLOAD,2023-04-01 04:48:44,15.08852278,7.4e-05,53.2176,8.2091,88.9632,271.1444,0.0013889,0.00021893,0.0,0 STARLINK-3112,1 49421U 21104P   23091.20051988  .00021893  00000-0  13889-2 0  9990,2 49421  53.2176   8.2091 0000740  88.9632 271.1444 15.08852278 76566,6917.843,95.437,540.22,539.196,0.0
49421.0,STARLINK-3112,PAYLOAD,2023-04-01 17:31:50,15.0884576,0.0001771,53.2174,5.8306,101.6685,258.4506,0.0012324,0.00019383,0.0,0 STARLINK-3112,1 49421U 21104P   23091.73044661  .00019383  00000-0  12324-2 0  9992,2 49421  53.2174   5.8306 0001771 101.6685 258.4506 15.08845760 77726,6917.863,95.437,540.953,538.503,0.0
49421.0,STARLINK-3112,PAYLOAD,2023-04-02 01:28:46,15.08835062,0.0001073,53.2184,4.3433,80.0998,280.0115,0.00067935,0.00010539,0.0,0 STARLINK-3112,1 49421U 21104P   23092.06164986  .00010539  00000-0  67935-3 0  9995,2 49421  53.2184   4.3433 0001073  80.0998 280.0115 15.08835062 77770,6917.895,95.438,540.503,539.018,0.0
49421.0,STARLINK-3112,PAYLOAD,2023-04-02 22:08:46,15.08860745,9.08e-05,53.2179,0.4772,82.091,278.0185,0.0007333,0.00011408,0.0,0 STARLINK-3112,1 49421U 21104P   23092.92276140  .00011408  00000-0  73330-3 0  9998,2 49421  53.2179   0.4772 0000908  82.0910 278.0185 15.08860745 76824,6917.817,95.436,540.31,539.054,0.0
49421.0,STARLINK-3112,PAYLOAD,2023-04-03 02:54:55,15.08873872,9.04e-05,53.2178,359.5853,79.995,280.1144,0.0010654,0.00016724,0.0,0 STARLINK-3112,1 49421U 21104P   23093.12147696  .00016724  00000-0  10654-2 0  9999,2 49421  53.2178 359.5853 0000904  79.9950 280.1144 15.08873872 77933,6917.777,95.435,540.267,539.016,0.0
49421.0,STARLINK-3112,PAYLOAD,2023-04-03 17:13:24,15.08841429,0.0001141,53.2179,356.9098,82.5422,277.57,6.0468e-06,-1.92e-06,0.0,0 STARLINK-3112,1 49421U 21104P   23093.71764339 -.00000192  00000-0  60468-5 0  9997,2 49421  53.2179 356.9098 0001141  82.5422 277.5700 15.08841429 78026,6917.876,95.437,540.53,538.952,0.0
49421.0,STARLINK-3112,PAYLOAD,2023-04-04 02:45:43,15.08844534,9.89e-05,53.2175,355.1248,68.1134,291.9964,0.00063,9.754e-05,0.0,0 STARLINK-3112,1 49421U 21104P   23094.11508552  .00009754  00000-0  63000-3 0  9990,2 49421  53.2175 355.1248 0000989  68.1134 291.9964 15.08844534 77008,6917.867,95.437,540.416,539.047,0.0
49421.0,STARLINK-3112,PAYLOAD,2023-04-04 21:50:21,15.08835824,0.000125,53.2183,351.5566,57.7325,302.3788,0.00070725,0.00010985,0.0,0 STARLINK-3112,1 49421U 21104P   23094.90997162  .00010985  00000-0  70725-3 0  9996,2 49421  53.2183 351.5566 0001250  57.7325 302.3788 15.08835824 77124,6917.893,95.438,540.623,538.893,0.0
49421.0,STARLINK-3112,PAYLOAD,2023-04-05 02:36:30,15.08846829,0.0001308,53.2183,350.6632,55.8417,304.2699,0.00076631,0.00011931,0.0,0 STARLINK-3112,1 49421U 21104P   23095.10868903  .00011931  00000-0  76631-3 0  9993,2 49421  53.2183 350.6632 0001308  55.8417 304.2699 15.08846829 78235,6917.86,95.437,540.629,538.82,0.0
49421.0,STARLINK-3112,PAYLOAD,2023-04-05 20:05:45,15.08837122,9.87e-05,53.2182,347.3944,77.4594,282.6509,0.00013996,1.94e-05,0.0,0 STARLINK-3112,1 49421U 21104P   23095.83733225  .00001940  00000-0  13996-3 0  9995,2 49421  53.2182 347.3944 0000987  77.4594 282.6509 15.08837122 77268,6917.889,95.438,540.437,539.071,0.0
49421.0,STARLINK-3112,PAYLOAD,2023-04-05 21:41:08,15.08838853,0.0001093,53.2183,347.0973,77.3189,282.7925,0.00015405,2.165e-05,0.0,0 STARLINK-3112,1 49421U 21104P   23095.90357224  .00002165  00000-0  15405-3 0  9991,2 49421  53.2183 347.0973 0001093  77.3189 282.7925 15.08838853 78352,6917.884,95.438,540.505,538.993,0.0
